[{"OBJECT_NAME":"STARLINK-35127","OBJECT_ID":"2025-210T","EPOCH":"2026-03-09T21:19:15.346848","MEAN_MOTION":15.30210805,"ECCENTRICITY":0.00010617,"INCLINATION":53.1573,"RA_OF_ASC_NODE":306.0042,"ARG_OF_PERICENTER":114.3002,"MEAN_ANOMALY":245.811,"EPHEMERIS_TYPE":0,"CLASSIFICATION_TYPE":"U","NORAD_CAT_ID":65639,"ELEMENT_SET_NO":999,"REV_AT_EPOCH":2776,"BSTAR":0.0008981067,"MEAN_MOTION_DOT":0.00026343,"MEAN_MOTION_DDOT":0},{"OBJECT_NAME":"SL-3 R\/B","OBJECT_ID":"1982-079B","EPOCH":"2026-03-09T22:18:18.158976","MEAN_MOTION":15.24805533,"ECCENTRICITY":0.00250364,"INCLINATION":81.1481,"RA_OF_ASC_NODE":192.7939,"ARG_OF_PERICENTER":164.0597,"MEAN_ANOMALY":196.143,"EPHEMERIS_TYPE":0,"CLASSIFICATION_TYPE":"U","NORAD_CAT_ID":13403,"ELEMENT_SET_NO":999,"REV_AT_EPOCH":37773,"BSTAR":0.00032485557,"MEAN_MOTION_DOT":8.157e-5,"MEAN_MOTION_DDOT":0}]
